CCSDS_OMM_VERS = 2.0
CREATION_DATE  = 
ORIGINATOR     = 

OBJECT_NAME    = STARLINK-36515
OBJECT_ID      = 2026-005AC
CENTER_NAME    = EARTH
REF_FRAME      = TEME
TIME_SYSTEM    = UTC
MEAN_ELEMENT_THEORY = SGP/SGP4

EPOCH          = 2026-02-08T01:58:26.629824
MEAN_MOTION    = 15.50271100
ECCENTRICITY   = .00017393
INCLINATION    = 43.0000
RA_OF_ASC_NODE = 47.3312
ARG_OF_PERICENTER = 203.8230
MEAN_ANOMALY   = 156.2550

EPHEMERIS_TYPE = 0
CLASSIFICATION_TYPE = U
NORAD_CAT_ID   = 67430
ELEMENT_SET_NO = 999
REV_AT_EPOCH   = 413
BSTAR          = -.3135777E-2
MEAN_MOTION_DOT = -.178221E-2
MEAN_MOTION_DDOT = 0

CCSDS_OMM_VERS = 2.0
CREATION_DATE  = 
ORIGINATOR     = 

OBJECT_NAME    = STARLINK-36443
OBJECT_ID      = 2026-005AD
CENTER_NAME    = EARTH
REF_FRAME      = TEME
TIME_SYSTEM    = UTC
MEAN_ELEMENT_THEORY = SGP/SGP4

EPOCH          = 2026-02-08T01:56:53.837952
MEAN_MOTION    = 15.50574736
ECCENTRICITY   = .00013531
INCLINATION    = 43.0002
RA_OF_ASC_NODE = 47.3211
ARG_OF_PERICENTER = 264.5429
MEAN_ANOMALY   = 95.5277

EPHEMERIS_TYPE = 0
CLASSIFICATION_TYPE = U
NORAD_CAT_ID   = 67431
ELEMENT_SET_NO = 999
REV_AT_EPOCH   = 414
BSTAR          = .7801324E-5
MEAN_MOTION_DOT = .116E-5
MEAN_MOTION_DDOT = 0

CCSDS_OMM_VERS = 2.0
CREATION_DATE  = 
ORIGINATOR     = 

OBJECT_NAME    = STARLINK-36460
OBJECT_ID      = 2026-005AE
CENTER_NAME    = EARTH
REF_FRAME      = TEME
TIME_SYSTEM    = UTC
MEAN_ELEMENT_THEORY = SGP/SGP4

EPOCH          = 2026-02-08T01:56:24.384192
MEAN_MOTION    = 15.50585149
ECCENTRICITY   = .00013999
INCLINATION    = 43.0002
RA_OF_ASC_NODE = 47.3190
ARG_OF_PERICENTER = 305.3668
MEAN_ANOMALY   = 54.7061

EPHEMERIS_TYPE = 0
CLASSIFICATION_TYPE = U
NORAD_CAT_ID   = 67432
ELEMENT_SET_NO = 999
REV_AT_EPOCH   = 413
BSTAR          = .18644631E-2
MEAN_MOTION_DOT = .11062E-2
MEAN_MOTION_DDOT = 0

CCSDS_OMM_VERS = 2.0
CREATION_DATE  = 
ORIGINATOR     = 

OBJECT_NAME    = YAOGAN-50 01
OBJECT_ID      = 2026-006A
CENTER_NAME    = EARTH
REF_FRAME      = TEME
TIME_SYSTEM    = UTC
MEAN_ELEMENT_THEORY = SGP/SGP4

EPOCH          = 2026-02-08T05:46:50.915712
MEAN_MOTION    = 13.83242026
ECCENTRICITY   = .00007477
INCLINATION    = 142.0321
RA_OF_ASC_NODE = 312.6352
ARG_OF_PERICENTER = 262.9303
MEAN_ANOMALY   = 97.1331

EPHEMERIS_TYPE = 0
CLASSIFICATION_TYPE = U
NORAD_CAT_ID   = 67433
ELEMENT_SET_NO = 999
REV_AT_EPOCH   = 357
BSTAR          = .16823245E-3
MEAN_MOTION_DOT = .374E-5
MEAN_MOTION_DDOT = 0

CCSDS_OMM_VERS = 2.0
CREATION_DATE  = 
ORIGINATOR     = 

OBJECT_NAME    = CZ-6A R/B
OBJECT_ID      = 2026-006B
CENTER_NAME    = EARTH
REF_FRAME      = TEME
TIME_SYSTEM    = UTC
MEAN_ELEMENT_THEORY = SGP/SGP4

EPOCH          = 2026-02-08T06:10:33.497760
MEAN_MOTION    = 14.62312913
ECCENTRICITY   = .02036193
INCLINATION    = 142.0437
RA_OF_ASC_NODE = 328.7887
ARG_OF_PERICENTER = 269.9550
MEAN_ANOMALY   = 87.7864

EPHEMERIS_TYPE = 0
CLASSIFICATION_TYPE = U
NORAD_CAT_ID   = 67434
ELEMENT_SET_NO = 999
REV_AT_EPOCH   = 376
BSTAR          = .2362579E-3
MEAN_MOTION_DOT = .1959E-4
MEAN_MOTION_DDOT = 0

CCSDS_OMM_VERS = 2.0
CREATION_DATE  = 
ORIGINATOR     = 

OBJECT_NAME    = HULIANWANG DIGUI-137
OBJECT_ID      = 2026-007A
CENTER_NAME    = EARTH
REF_FRAME      = TEME
TIME_SYSTEM    = UTC
MEAN_ELEMENT_THEORY = SGP/SGP4

EPOCH          = 2026-02-07T21:57:53.505504
MEAN_MOTION    = 13.74126901
ECCENTRICITY   = .0002711
INCLINATION    = 49.9986
RA_OF_ASC_NODE = 194.4813
ARG_OF_PERICENTER = 17.7923
MEAN_ANOMALY   = 342.3063

EPHEMERIS_TYPE = 0
CLASSIFICATION_TYPE = U
NORAD_CAT_ID   = 67435
ELEMENT_SET_NO = 999
REV_AT_EPOCH   = 351
BSTAR          = .16035E-3
MEAN_MOTION_DOT = .11E-6
MEAN_MOTION_DDOT = 0

CCSDS_OMM_VERS = 2.0
CREATION_DATE  = 
ORIGINATOR     = 

OBJECT_NAME    = HULIANWANG DIGUI-138
OBJECT_ID      = 2026-007B
CENTER_NAME    = EARTH
REF_FRAME      = TEME
TIME_SYSTEM    = UTC
MEAN_ELEMENT_THEORY = SGP/SGP4

EPOCH          = 2026-02-08T05:05:37.026240
MEAN_MOTION    = 13.73587962
ECCENTRICITY   = .0003451
INCLINATION    = 49.9995
RA_OF_ASC_NODE = 193.3905
ARG_OF_PERICENTER = 134.2061
MEAN_ANOMALY   = 225.9115

EPHEMERIS_TYPE = 0
CLASSIFICATION_TYPE = U
NORAD_CAT_ID   = 67436
ELEMENT_SET_NO = 999
REV_AT_EPOCH   = 355
BSTAR          = .15995392E-3
MEAN_MOTION_DOT = .1E-6
MEAN_MOTION_DDOT = 0

CCSDS_OMM_VERS = 2.0
CREATION_DATE  = 
ORIGINATOR     = 

OBJECT_NAME    = HULIANWANG DIGUI-139
OBJECT_ID      = 2026-007C
CENTER_NAME    = EARTH
REF_FRAME      = TEME
TIME_SYSTEM    = UTC
MEAN_ELEMENT_THEORY = SGP/SGP4

EPOCH          = 2026-02-07T11:33:24.112512
MEAN_MOTION    = 13.74488554
ECCENTRICITY   = .00004825
INCLINATION    = 50.0000
RA_OF_ASC_NODE = 196.1814
ARG_OF_PERICENTER = 302.0612
MEAN_ANOMALY   = 58.0233

EPHEMERIS_TYPE = 0
CLASSIFICATION_TYPE = U
NORAD_CAT_ID   = 67437
ELEMENT_SET_NO = 999
REV_AT_EPOCH   = 345
BSTAR          = .19579013E-3
MEAN_MOTION_DOT = .46E-6
MEAN_MOTION_DDOT = 0

CCSDS_OMM_VERS = 2.0
CREATION_DATE  = 
ORIGINATOR     = 

OBJECT_NAME    = HULIANWANG DIGUI-140
OBJECT_ID      = 2026-007D
CENTER_NAME    = EARTH
REF_FRAME      = TEME
TIME_SYSTEM    = UTC
MEAN_ELEMENT_THEORY = SGP/SGP4

EPOCH          = 2026-02-07T13:27:31.540608
MEAN_MOTION    = 13.73892776
ECCENTRICITY   = .00004499
INCLINATION    = 50.0042
RA_OF_ASC_NODE = 195.9376
ARG_OF_PERICENTER = 100.2709
MEAN_ANOMALY   = 259.8233

EPHEMERIS_TYPE = 0
CLASSIFICATION_TYPE = U
NORAD_CAT_ID   = 67438
ELEMENT_SET_NO = 999
REV_AT_EPOCH   = 346
BSTAR          = .18839618E-3
MEAN_MOTION_DOT = .37E-6
MEAN_MOTION_DDOT = 0

CCSDS_OMM_VERS = 2.0
CREATION_DATE  = 
ORIGINATOR     = 

OBJECT_NAME    = HULIANWANG DIGUI-141
OBJECT_ID      = 2026-007E
CENTER_NAME    = EARTH
REF_FRAME      = TEME
TIME_SYSTEM    = UTC
MEAN_ELEMENT_THEORY = SGP/SGP4

EPOCH          = 2026-02-07T13:08:54.624480
MEAN_MOTION    = 13.74661753
ECCENTRICITY   = .00004324
INCLINATION    = 50.0031
RA_OF_ASC_NODE = 195.8681
ARG_OF_PERICENTER = 103.6480
MEAN_ANOMALY   = 256.4460

EPHEMERIS_TYPE = 0
CLASSIFICATION_TYPE = U
NORAD_CAT_ID   = 67439
ELEMENT_SET_NO = 999
REV_AT_EPOCH   = 346
BSTAR          = .16774215E-3
MEAN_MOTION_DOT = .2E-6
MEAN_MOTION_DDOT = 0

CCSDS_OMM_VERS = 2.0
CREATION_DATE  = 
ORIGINATOR     = 

OBJECT_NAME    = HULIANWANG DIGUI-142
OBJECT_ID      = 2026-007F
CENTER_NAME    = EARTH
REF_FRAME      = TEME
TIME_SYSTEM    = UTC
MEAN_ELEMENT_THEORY = SGP/SGP4

EPOCH          = 2026-02-07T09:34:50.876544
MEAN_MOTION    = 13.75320254
ECCENTRICITY   = .00015746
INCLINATION    = 50.0103
RA_OF_ASC_NODE = 196.4425
ARG_OF_PERICENTER = 349.9268
MEAN_ANOMALY   = 10.1593

EPHEMERIS_TYPE = 0
CLASSIFICATION_TYPE = U
NORAD_CAT_ID   = 67440
ELEMENT_SET_NO = 999
REV_AT_EPOCH   = 344
BSTAR          = .11053598E-4
MEAN_MOTION_DOT = -.13E-5
MEAN_MOTION_DDOT = 0

CCSDS_OMM_VERS = 2.0
CREATION_DATE  = 
ORIGINATOR     = 

OBJECT_NAME    = HULIANWANG DIGUI-143
OBJECT_ID      = 2026-007G
CENTER_NAME    = EARTH
REF_FRAME      = TEME
TIME_SYSTEM    = UTC
MEAN_ELEMENT_THEORY = SGP/SGP4

EPOCH          = 2026-02-07T14:43:52.402080
MEAN_MOTION    = 13.75018638
ECCENTRICITY   = .0002397
INCLINATION    = 50.0040
RA_OF_ASC_NODE = 195.5696
ARG_OF_PERICENTER = 180.3309
MEAN_ANOMALY   = 179.7582

EPHEMERIS_TYPE = 0
CLASSIFICATION_TYPE = U
NORAD_CAT_ID   = 67441
ELEMENT_SET_NO = 999
REV_AT_EPOCH   = 347
BSTAR          = .16748979E-3
MEAN_MOTION_DOT = .2E-6
MEAN_MOTION_DDOT = 0

